CUBEBUG-2 (LO-74)       
1 39440U 13066AA  26166.32154138  .00003784  00000+0  35112-3 0  9990
2 39440  97.8905 115.2917 0058511  35.0679 325.4371 14.93747355676716
FUNCUBE-1 (AO-73)       
1 39444U 13066AE  26166.20043176  .00005988  00000+0  37272-3 0  9997
2 39444  97.8272 137.6048 0035478 207.9767 151.9555 15.09468323679368
UWE-3                   
1 39446U 13066AG  26165.80939092  .00004072  00000+0  35106-3 0  9992
2 39446  97.8691 121.8670 0047958 329.0544  30.7853 14.97007906677226
UNISAT-6                
1 40012U 14033C   26166.31795931  .00002515  00000+0  27307-3 0  9991
2 40012  97.7874 319.0626 0046300  75.3113 285.3230 14.88237827645885
DUCHIFAT-1              
1 40021U 14033M   26166.10272097  .00097028  00000+0  10109-2 0  9995
2 40021  98.0469 224.9698 0003177 116.5852 243.5731 15.64229464655421
QB50P1                  
1 40025U 14033R   26165.97514943  .00008035  00000+0  39591-3 0  9999
2 40025  98.0959 176.9659 0007645 224.1126 135.9497 15.18232350652692
LILACSAT-2              
1 40908U 15049K   26166.33728022  .00014688  00000+0  25095-3 0  9998
2 40908  97.4645 203.1085 0005397 253.9499 106.1159 15.51391893595469
FOX-1A (AO-85)          
1 40967U 15058D   26166.07201661  .00002230  00000+0  20683-3 0  9997
2 40967  64.7762 285.5569 0130328  57.4109 303.9507 14.90961275113256
CAS-2T & KS-1Q          
1 41847U 16066G   26166.16278910  .00001557  00000+0  22513-3 0  9991
2 41847  98.3821 241.9223 0342730 135.6008 227.3214 14.44688208504502
RADFXSAT (FOX-1B)       
1 43017U 17073E   26166.15741311  .00007110  00000+0  31144-3 0  9991
2 43017  97.4708  33.4140 0149876 336.3288  23.1094 15.12691505465082
DIWATA-2B               
1 43678U 18084H   26166.30261269  .00002287  00000+0  18679-3 0  9991
2 43678  98.1176   2.4289 0012387 176.2540 183.8778 15.00444462415937
ES'HAIL 2               
1 43700U 18090A   26166.26412792  .00000148  00000+0  00000+0 0  9997
2 43700   0.0185  14.7689 0001590 110.2506 259.4061  1.00269656 27657
FOX-1CLIFF (AO-95)      
1 43770U 18099N   26166.11139331  .00011091  00000+0  42485-3 0  9998
2 43770  97.4386 226.3649 0008201   5.4671 354.6656 15.26676025412907
ITASAT                  
1 43786U 18099AE  26166.11136198  .00006013  00000+0  28974-3 0  9998
2 43786  97.4029 217.6642 0012323   7.5940 352.5479 15.19035090412594
JY1SAT (JO-97)          
1 43803U 18099AX  26166.07308693  .00015590  00000+0  48189-3 0  9994
2 43803  97.4132 228.8995 0004244 272.7751  87.3006 15.33596637413307
UWE-4                   
1 43880U 18111E   26166.27346589  .00027746  00000+0  56864-3 0  9997
2 43880  97.5858  94.5767 0005863 351.2758   8.8387 15.46025124410489
TIANYAN 01              
1 44881U 19093C   26166.29462308  .00001324  00000+0  15537-3 0  9995
2 44881  97.7538 238.5726 0015092  92.6692 267.6252 14.86518540351135
RS-44 & BREEZE-KM R/B   
1 44909U 19096E   26165.97247567  .00000013  00000+0  12208-5 0  9999
2 44909  82.5218 341.1769 0218083 149.3296 212.0767 12.79748835302061
SALSAT                  
1 46495U 20068K   26165.98698011  .00006897  00000+0  24187-3 0  9990
2 46495  97.8843 168.9176 0008203 317.5916  42.4688 15.29772719315025
XW-3 (CAS-9)            
1 50466U 21131B   26166.31913072  .00000573  00000+0  19055-3 0  9993
2 50466  98.4984 258.7187 0005349 100.9006 259.2785 14.41356470234844
GREENCUBE (IO-117)      
1 53109U 22080E   26164.29338770 -.00000003  00000+0  00000+0 0  9990
2 53109  70.1444 299.5995 0008910 290.4576  69.5127  6.42583230 91811
UMKA 1 (RS40S)          
1 57172U 23091G   26166.18581988  .00005482  00000+0  25121-3 0  9998
2 57172  97.5054 224.8905 0014181 123.8643 236.3944 15.20797606163707
CUBESX-HSE 3 (RS42S)    
1 57178U 23091N   26166.27867728  .00010816  00000+0  36091-3 0  9998
2 57178  97.5096 231.8415 0012071 100.6074 259.6528 15.31173436164135
MONITOR-3 (RS58S)       
1 57180U 23091Q   26166.23346592  .00008651  00000+0  32049-3 0  9991
2 57180  97.5088 229.6648 0013140 106.7788 253.4894 15.27808982163996
MONITOR-4 (RS57S)       
1 57182U 23091S   26166.27812331  .00008547  00000+0  31588-3 0  9997
2 57182  97.5082 229.6810 0013110 106.9844 253.2833 15.27893837164002
MONITOR-2 (RS39S)       
1 57184U 23091U   26166.27044311  .00004106  00000+0  19974-3 0  9996
2 57184  97.5075 224.5656 0012673 116.9013 243.3518 15.18894682163660
SVYATOBOR 1 (RS60S)     
1 57187U 23091X   26166.28957978  .00007384  00000+0  28452-3 0  9994
2 57187  97.5094 230.0959 0010903 100.0755 260.1714 15.26587649164020
VIZARD-METEO (RS38S)    
1 57189U 23091Z   26166.25837620  .00014268  00000+0  40904-3 0  9999
2 57189  97.5098 235.7044 0008383  83.3596 276.8602 15.35973885164399
POLYTECH-UNIVERSE 3 (R*)
1 57191U 23091AB  26166.29789972  .00004546  00000+0  21920-3 0  9997
2 57191  97.5051 224.0974 0016773 132.7866 227.4782 15.19097055163663
UTMN 2 (RS27S)          
1 57203U 23091AP  26166.29730710  .00010165  00000+0  33096-3 0  9998
2 57203  97.5093 233.4919 0009362  89.4470 270.7844 15.32011875164258
