OBJECT_NAME,OBJECT_ID,EPOCH,MEAN_MOTION,ECCENTRICITY,INCLINATION,RA_OF_ASC_NODE,ARG_OF_PERICENTER,MEAN_ANOMALY,EPHEMERIS_TYPE,CLASSIFICATION_TYPE,NORAD_CAT_ID,ELEMENT_SET_NO,REV_AT_EPOCH,BSTAR,MEAN_MOTION_DOT,MEAN_MOTION_DDOT
CUBEBUG-2 (LO-74),2013-066AA,2026-06-15T07:43:01.175232,14.93747355,.00585116,97.8905,115.2917,35.0679,325.4371,0,U,39440,999,67671,.3511224E-3,.3784E-4,0
FUNCUBE-1 (AO-73),2013-066AE,2026-06-15T04:48:37.304064,15.09468323,.00354782,97.8272,137.6048,207.9767,151.9555,0,U,39444,999,67936,.37271684E-3,.5988E-4,0
UWE-3,2013-066AG,2026-06-14T19:25:31.375488,14.97007906,.00479581,97.8691,121.8670,329.0544,30.7853,0,U,39446,999,67722,.35105924E-3,.4072E-4,0
UNISAT-6,2014-033C,2026-06-15T07:37:51.684384,14.88237827,.00463004,97.7874,319.0626,75.3113,285.3230,0,U,40012,999,64588,.27307182E-3,.2515E-4,0
DUCHIFAT-1,2014-033M,2026-06-15T02:27:55.091808,15.64229464,.00031778,98.0469,224.9698,116.5852,243.5731,0,U,40021,999,65542,.10109295E-2,.97028E-3,0
QB50P1,2014-033R,2026-06-14T23:24:12.910752,15.18232350,.0007645,98.0959,176.9659,224.1126,135.9497,0,U,40025,999,65269,.39590863E-3,.8035E-4,0
LILACSAT-2,2015-049K,2026-06-15T08:05:41.011008,15.51391893,.00053976,97.4645,203.1085,253.9499,106.1159,0,U,40908,999,59546,.25094599E-3,.14688E-3,0
FOX-1A (AO-85),2015-058D,2026-06-15T01:43:42.235104,14.90961275,.01303285,64.7762,285.5569,57.4109,303.9507,0,U,40967,999,11325,.20682944E-3,.223E-4,0
CAS-2T & KS-1Q,2016-066G,2026-06-15T03:54:24.978240,14.44688208,.03427308,98.3821,241.9223,135.6008,227.3214,0,U,41847,999,50450,.22512618E-3,.1557E-4,0
RADFXSAT (FOX-1B),2017-073E,2026-06-15T03:46:40.492704,15.12691505,.01498762,97.4708,33.4140,336.3288,23.1094,0,U,43017,999,46508,.3114401E-3,.711E-4,0
DIWATA-2B,2018-084H,2026-06-15T07:15:45.736416,15.00444462,.00123879,98.1176,2.4289,176.2540,183.8778,0,U,43678,999,41593,.18679011E-3,.2287E-4,0
ES'HAIL 2,2018-090A,2026-06-15T06:20:20.652288,1.00269656,.00015904,0.0185,14.7689,110.2506,259.4061,0,U,43700,999,2765,0,.148E-5,0
FOX-1CLIFF (AO-95),2018-099N,2026-06-15T02:40:24.381984,15.26676025,.00082015,97.4386,226.3649,5.4671,354.6656,0,U,43770,999,41290,.42484903E-3,.11091E-3,0
ITASAT,2018-099AE,2026-06-15T02:40:21.675072,15.19035090,.00123231,97.4029,217.6642,7.5940,352.5479,0,U,43786,999,41259,.28973527E-3,.6013E-4,0
JY1SAT (JO-97),2018-099AX,2026-06-15T01:45:14.710752,15.33596637,.00042443,97.4132,228.8995,272.7751,87.3006,0,U,43803,999,41330,.4818861E-3,.1559E-3,0
UWE-4,2018-111E,2026-06-15T06:33:47.452896,15.46025124,.00058637,97.5858,94.5767,351.2758,8.8387,0,U,43880,999,41048,.56863639E-3,.27746E-3,0
TIANYAN 01,2019-093C,2026-06-15T07:04:15.434112,14.86518540,.00150921,97.7538,238.5726,92.6692,267.6252,0,U,44881,999,35113,.15536585E-3,.1324E-4,0
RS-44 & BREEZE-KM R/B,2019-096E,2026-06-14T23:20:21.897888,12.79748835,.02180831,82.5218,341.1769,149.3296,212.0767,0,U,44909,999,30206,.1220792E-5,.13E-6,0
SALSAT,2020-068K,2026-06-14T23:41:15.081504,15.29772719,.0008203,97.8843,168.9176,317.5916,42.4688,0,U,46495,999,31502,.24186561E-3,.6897E-4,0
XW-3 (CAS-9),2021-131B,2026-06-15T07:39:32.894208,14.41356470,.0005349,98.4984,258.7187,100.9006,259.2785,0,U,50466,999,23484,.19054568E-3,.573E-5,0
GREENCUBE (IO-117),2022-080E,2026-06-13T07:02:28.697280,6.42583230,.00089108,70.1444,299.5995,290.4576,69.5127,0,U,53109,999,9181,0,-.3E-7,0
UMKA 1 (RS40S),2023-091G,2026-06-15T04:27:34.837632,15.20797606,.00141814,97.5054,224.8905,123.8643,236.3944,0,U,57172,999,16370,.25120761E-3,.5482E-4,0
CUBESX-HSE 3 (RS42S),2023-091N,2026-06-15T06:41:17.716992,15.31173436,.00120712,97.5096,231.8415,100.6074,259.6528,0,U,57178,999,16413,.36090753E-3,.10816E-3,0
MONITOR-3 (RS58S),2023-091Q,2026-06-15T05:36:11.455488,15.27808982,.00131409,97.5088,229.6648,106.7788,253.4894,0,U,57180,999,16399,.32049314E-3,.8651E-4,0
MONITOR-4 (RS57S),2023-091S,2026-06-15T06:40:29.853984,15.27893837,.00131103,97.5082,229.6810,106.9844,253.2833,0,U,57182,999,16400,.31587697E-3,.8547E-4,0
MONITOR-2 (RS39S),2023-091U,2026-06-15T06:29:26.284704,15.18894682,.0012673,97.5075,224.5656,116.9013,243.3518,0,U,57184,999,16366,.19973794E-3,.4106E-4,0
SVYATOBOR 1 (RS60S),2023-091X,2026-06-15T06:56:59.692992,15.26587649,.00109038,97.5094,230.0959,100.0755,260.1714,0,U,57187,999,16402,.2845239E-3,.7384E-4,0
VIZARD-METEO (RS38S),2023-091Z,2026-06-15T06:12:03.703680,15.35973885,.00083832,97.5098,235.7044,83.3596,276.8602,0,U,57189,999,16439,.40904209E-3,.14268E-3,0
POLYTECH-UNIVERSE 3 (RS46S),2023-091AB,2026-06-15T07:08:58.535808,15.19097055,.00167734,97.5051,224.0974,132.7866,227.4782,0,U,57191,999,16366,.21920251E-3,.4546E-4,0
UTMN 2 (RS27S),2023-091AP,2026-06-15T07:08:07.333440,15.32011875,.00093621,97.5093,233.4919,89.4470,270.7844,0,U,57203,999,16425,.33096039E-3,.10165E-3,0
